{"type":"FeatureCollection","features":[{"type":"Feature","properties":{"zone":2},"geometry":{"type":"MultiPolygon","coordinates":[[[[2.39947,48.88496],[2.40011,48.88381],[2.40149,48.88262],[2.40463,48.88123],[2.40934,48.88026],[2.4125,48.87638],[2.41362,48.87258],[2.41401,48.8689],[2.41386,48.86408],[2.41463,48.85906],[2.41643,48.84879],[2.41569,48.84511],[2.41351,48.83788],[2.41227,48.83455],[2.41131,48.83392],[2.40832,48.83489],[2.408,48.83482],[2.40764,48.83436],[2.40563,48.83326],[2.40443,48.83296],[2.40416,48.83247],[2.40269,48.83149],[2.40227,48.83133],[2.40152,48.83112],[2.39932,48.83077],[2.40149,48.82937],[2.39572,48.82773],[2.39435,48.82751],[2.38977,48.82552],[2.38882,48.82501],[2.38152,48.82241],[2.38076,48.8217],[2.36869,48.81773],[2.3634,48.81606],[2.35592,48.81597],[2.3524,48.81853],[2.34692,48.81586],[2.34443,48.81611],[2.3445,48.81558],[2.34308,48.81609],[2.34171,48.81634],[2.33373,48.81676],[2.33175,48.81704],[2.33237,48.81822],[2.29222,48.82714],[2.28332,48.83088],[2.27903,48.83246],[2.27551,48.82959],[2.27274,48.82793],[2.26783,48.82784],[2.26763,48.82796],[2.26732,48.83149],[2.26761,48.83172],[2.2686,48.83228],[2.26965,48.83286],[2.27004,48.833],[2.26785,48.83456],[2.2673,48.83465],[2.26296,48.8339],[2.25515,48.83481],[2.25165,48.83891],[2.25122,48.8429],[2.25254,48.84558],[2.25068,48.84563],[2.25106,48.84641],[2.25113,48.84683],[2.25109,48.84756],[2.25123,48.84789],[2.25129,48.84798],[2.25721,48.8479],[2.25735,48.84844],[2.25771,48.84867],[2.25778,48.8492],[2.25823,48.85011],[2.26248,48.85674],[2.26275,48.85755],[2.26499,48.86104],[2.26513,48.86148],[2.26508,48.86219],[2.26548,48.86273],[2.26572,48.86319],[2.26621,48.86363],[2.26687,48.86398],[2.26702,48.86402],[2.26712,48.86398],[2.26735,48.86375],[2.26746,48.86385],[2.26844,48.86495],[2.27,48.86709],[2.27231,48.86977],[2.27317,48.87053],[2.27395,48.87102],[2.27422,48.87125],[2.27411,48.87181],[2.27696,48.8751],[2.27745,48.87537],[2.27677,48.87588],[2.2787,48.87694],[2.27923,48.87739],[2.27937,48.87781],[2.27771,48.87803],[2.27996,48.8787],[2.28091,48.88288],[2.28566,48.88657],[2.29154,48.88945],[2.29506,48.88987],[2.29857,48.89171],[2.3075,48.89594],[2.31227,48.89774],[2.31852,48.89963],[2.32039,48.90076],[2.32639,48.90097],[2.38444,48.90216],[2.39071,48.90098],[2.39552,48.89826],[2.39777,48.89461],[2.39862,48.89135],[2.39919,48.88823],[2.39921,48.88542],[2.39947,48.88496]],[[2.30152,48.86452],[2.30159,48.86347],[2.29979,48.86335],[2.29895,48.86322],[2.29792,48.86298],[2.29637,48.86251],[2.29509,48.86196],[2.2942,48.86152],[2.29361,48.86112],[2.29178,48.85978],[2.28984,48.85824],[2.30088,48.85118],[2.30096,48.85123],[2.30734,48.84714],[2.30804,48.84739],[2.31053,48.84799],[2.31373,48.84593],[2.31657,48.84682],[2.31915,48.84551],[2.3202,48.84511],[2.33673,48.83965],[2.33974,48.83885],[2.347,48.83732],[2.35182,48.83678],[2.36182,48.83996],[2.36479,48.84396],[2.36495,48.84426],[2.36515,48.84443],[2.36603,48.84493],[2.36443,48.84614],[2.3665,48.84737],[2.36914,48.85316],[2.37035,48.85325],[2.3713,48.85268],[2.37197,48.8524],[2.37379,48.85187],[2.37882,48.85063],[2.38012,48.85045],[2.38157,48.85039],[2.38378,48.85021],[2.39592,48.84838],[2.39912,48.8481],[2.39926,48.84884],[2.39843,48.85135],[2.39507,48.85564],[2.39444,48.85657],[2.39227,48.85769],[2.3898,48.85843],[2.38958,48.85853],[2.38752,48.86276],[2.3873,48.86309],[2.38346,48.86645],[2.38308,48.86718],[2.38063,48.86901],[2.37798,48.87109],[2.37512,48.87376],[2.37028,48.87799],[2.37022,48.88268],[2.37013,48.88277],[2.36928,48.88317],[2.36904,48.8834],[2.36875,48.88393],[2.36852,48.88405],[2.36824,48.88412],[2.36434,48.88439],[2.3593,48.88443],[2.35412,48.88407],[2.34951,48.88373],[2.34695,48.88342],[2.33982,48.88202],[2.3373,48.8824],[2.33244,48.88385],[2.32944,48.88455],[2.32814,48.88371],[2.32743,48.88352],[2.31666,48.88133],[2.30861,48.88032],[2.29816,48.87808],[2.29504,48.87378],[2.29753,48.87093],[2.29891,48.86856],[2.2999,48.86533],[2.3002,48.86506],[2.30152,48.86452]]]]}},{"type":"Feature","properties":{"zone":1},"geometry":{"type":"Polygon","coordinates":[[[2.33978,48.88203],[2.34695,48.88342],[2.34951,48.88373],[2.35894,48.88441],[2.36434,48.88439],[2.36803,48.88415],[2.36839,48.88409],[2.3687,48.88396],[2.36917,48.88326],[2.36945,48.88308],[2.37013,48.88277],[2.37022,48.88267],[2.37028,48.87799],[2.37512,48.87376],[2.37798,48.87109],[2.38063,48.86901],[2.38308,48.86718],[2.38346,48.86645],[2.3873,48.86309],[2.38752,48.86276],[2.38958,48.85853],[2.3898,48.85843],[2.39227,48.85769],[2.39444,48.85657],[2.39507,48.85564],[2.39843,48.85135],[2.39926,48.84884],[2.39912,48.8481],[2.39592,48.84838],[2.38378,48.85021],[2.38157,48.85039],[2.38012,48.85045],[2.37882,48.85063],[2.37379,48.85187],[2.37197,48.8524],[2.3713,48.85268],[2.37035,48.85325],[2.36914,48.85316],[2.3665,48.84737],[2.36443,48.84614],[2.36603,48.84493],[2.36515,48.84443],[2.36495,48.84426],[2.36479,48.84396],[2.36182,48.83996],[2.35272,48.83706],[2.35184,48.83679],[2.35166,48.83678],[2.347,48.83732],[2.33974,48.83885],[2.33673,48.83965],[2.3202,48.84511],[2.31915,48.84551],[2.31657,48.84682],[2.31373,48.84593],[2.31053,48.84799],[2.30804,48.84739],[2.30734,48.84714],[2.30096,48.85123],[2.30088,48.85118],[2.28984,48.85824],[2.29178,48.85978],[2.29361,48.86112],[2.2942,48.86152],[2.29509,48.86196],[2.29637,48.86251],[2.29792,48.86298],[2.29895,48.86322],[2.29979,48.86335],[2.30159,48.86347],[2.30152,48.86452],[2.3002,48.86506],[2.2999,48.86533],[2.29891,48.86856],[2.29753,48.87093],[2.29504,48.87378],[2.29816,48.87808],[2.30861,48.88032],[2.31666,48.88133],[2.32743,48.88352],[2.32814,48.88371],[2.32944,48.88455],[2.33244,48.88385],[2.3373,48.8824],[2.33978,48.88203]]]}}]}