{"type":"FeatureCollection","features":[{"type":"Feature","properties":{"ar":1,"nom":"Louvre","label":"1er Ardt","coverage":0.936},"geometry":{"type":"Polygon","coordinates":[[[2.32801,48.86992],[2.32997,48.86851],[2.33066,48.86819],[2.33737,48.86665],[2.35095,48.86341],[2.34756,48.85735],[2.34699,48.85701],[2.3459,48.85531],[2.34459,48.85405],[2.34286,48.85486],[2.34086,48.85656],[2.33755,48.85839],[2.33291,48.85935],[2.32991,48.86013],[2.3261,48.86148],[2.3209,48.86306],[2.32357,48.86649],[2.32532,48.86901],[2.32516,48.86945],[2.32801,48.86992]]]}},{"type":"Feature","properties":{"ar":2,"nom":"Bourse","label":"2ème Ardt","coverage":1},"geometry":{"type":"Polygon","coordinates":[[[2.35152,48.86443],[2.35095,48.86341],[2.33737,48.86665],[2.33066,48.86819],[2.32997,48.86851],[2.32801,48.86992],[2.34004,48.87198],[2.34788,48.8707],[2.35426,48.86933],[2.35152,48.86443]]]}},{"type":"Feature","properties":{"ar":3,"nom":"Temple","label":"3ème Ardt","coverage":1},"geometry":{"type":"Polygon","coordinates":[[[2.36383,48.8675],[2.36425,48.86725],[2.36675,48.86306],[2.36851,48.85573],[2.36445,48.85641],[2.36175,48.85725],[2.35937,48.85832],[2.3569,48.86007],[2.35334,48.86127],[2.35016,48.86199],[2.35426,48.86933],[2.35638,48.86885],[2.36326,48.86784],[2.36383,48.8675]]]}},{"type":"Feature","properties":{"ar":4,"nom":"Hôtel-de-Ville","label":"4ème Ardt","coverage":1},"geometry":{"type":"Polygon","coordinates":[[[2.36851,48.85573],[2.36914,48.85316],[2.3665,48.84737],[2.36443,48.84614],[2.36249,48.84762],[2.36151,48.84823],[2.35917,48.84948],[2.35551,48.85069],[2.35371,48.85122],[2.35252,48.85139],[2.35004,48.852],[2.34847,48.85261],[2.34695,48.85329],[2.34459,48.85405],[2.3459,48.85531],[2.34699,48.85701],[2.34756,48.85735],[2.35016,48.86199],[2.35334,48.86127],[2.3569,48.86007],[2.35937,48.85832],[2.36175,48.85725],[2.36445,48.85641],[2.36851,48.85573]]]}},{"type":"Feature","properties":{"ar":5,"nom":"Panthéon","label":"5ème Ardt","coverage":1},"geometry":{"type":"Polygon","coordinates":[[[2.36443,48.84614],[2.36603,48.84493],[2.36495,48.84426],[2.36182,48.83996],[2.35184,48.83679],[2.347,48.83732],[2.33974,48.83885],[2.33673,48.83965],[2.33679,48.8407],[2.33712,48.84076],[2.3373,48.84093],[2.34084,48.84735],[2.34265,48.85031],[2.34428,48.85375],[2.34459,48.85405],[2.34695,48.85329],[2.34847,48.85261],[2.35004,48.852],[2.35252,48.85139],[2.35371,48.85122],[2.35551,48.85069],[2.35917,48.84948],[2.36151,48.84823],[2.36249,48.84762],[2.36443,48.84614]]]}},{"type":"Feature","properties":{"ar":6,"nom":"Luxembourg","label":"6ème Ardt","coverage":1},"geometry":{"type":"Polygon","coordinates":[[[2.34459,48.85405],[2.34428,48.85375],[2.34265,48.85031],[2.34084,48.84735],[2.3373,48.84093],[2.33712,48.84076],[2.33679,48.8407],[2.33673,48.83965],[2.3202,48.84511],[2.31915,48.84551],[2.31657,48.84682],[2.31936,48.84785],[2.32414,48.85023],[2.32664,48.85126],[2.32719,48.85163],[2.32842,48.85182],[2.32931,48.85261],[2.33084,48.8552],[2.33327,48.85826],[2.33245,48.85851],[2.33291,48.85935],[2.33755,48.85839],[2.34086,48.85656],[2.34286,48.85486],[2.34459,48.85405]]]}},{"type":"Feature","properties":{"ar":7,"nom":"Palais-Bourbon","label":"7ème Ardt","coverage":0.981},"geometry":{"type":"Polygon","coordinates":[[[2.30088,48.85118],[2.28984,48.85824],[2.29178,48.85978],[2.2942,48.86152],[2.29622,48.86245],[2.29792,48.86298],[2.29979,48.86335],[2.30159,48.86347],[2.31861,48.86377],[2.3261,48.86148],[2.32991,48.86013],[2.33291,48.85935],[2.33245,48.85851],[2.33327,48.85826],[2.33084,48.8552],[2.32931,48.85261],[2.32842,48.85182],[2.32719,48.85163],[2.32664,48.85126],[2.32414,48.85023],[2.31936,48.84785],[2.3161,48.84666],[2.31373,48.84593],[2.31053,48.84799],[2.30804,48.84739],[2.30734,48.84714],[2.30096,48.85123],[2.30088,48.85118]]]}},{"type":"Feature","properties":{"ar":8,"nom":"Élysée","label":"8ème Ardt","coverage":0.979},"geometry":{"type":"Polygon","coordinates":[[[2.32584,48.86956],[2.32516,48.86945],[2.32532,48.86901],[2.32357,48.86649],[2.3209,48.86306],[2.31874,48.86374],[2.31847,48.86378],[2.30159,48.86347],[2.30152,48.86452],[2.3002,48.86506],[2.2999,48.86533],[2.29891,48.86856],[2.29753,48.87093],[2.29504,48.87378],[2.29816,48.87808],[2.30861,48.88032],[2.31666,48.88133],[2.32718,48.88348],[2.32685,48.87563],[2.32658,48.87558],[2.32705,48.87374],[2.32675,48.87314],[2.32584,48.86956]]]}},{"type":"Feature","properties":{"ar":9,"nom":"Opéra","label":"9ème Ardt","coverage":1},"geometry":{"type":"Polygon","coordinates":[[[2.33978,48.88203],[2.34695,48.88342],[2.34951,48.88373],[2.34959,48.88349],[2.34986,48.88063],[2.34929,48.87905],[2.34911,48.87748],[2.34825,48.87579],[2.34791,48.87402],[2.34788,48.8707],[2.34004,48.87198],[2.32584,48.86956],[2.32675,48.87314],[2.32705,48.87374],[2.32658,48.87558],[2.32685,48.87563],[2.32718,48.88348],[2.32814,48.88371],[2.32944,48.88455],[2.33244,48.88385],[2.3373,48.8824],[2.33978,48.88203]]]}},{"type":"Feature","properties":{"ar":10,"nom":"Entrepôt","label":"10ème Ardt","coverage":1},"geometry":{"type":"Polygon","coordinates":[[[2.36469,48.88437],[2.36839,48.88409],[2.36878,48.8839],[2.369,48.88345],[2.36922,48.88321],[2.37018,48.88274],[2.37028,48.87799],[2.37699,48.87206],[2.37309,48.87063],[2.36964,48.86957],[2.36761,48.86883],[2.36552,48.8682],[2.36383,48.8675],[2.36326,48.86784],[2.35638,48.86885],[2.34788,48.8707],[2.34791,48.87402],[2.34825,48.87579],[2.34911,48.87748],[2.34929,48.87905],[2.34986,48.88063],[2.34959,48.88349],[2.34951,48.88373],[2.35911,48.88442],[2.36469,48.88437]]]}},{"type":"Feature","properties":{"ar":11,"nom":"Popincourt","label":"11ème Ardt","coverage":1},"geometry":{"type":"Polygon","coordinates":[[[2.39624,48.85415],[2.39843,48.85135],[2.39926,48.84884],[2.39912,48.8481],[2.39592,48.84838],[2.38378,48.85021],[2.38012,48.85045],[2.37882,48.85063],[2.37379,48.85187],[2.37197,48.8524],[2.3713,48.85268],[2.37035,48.85325],[2.36914,48.85316],[2.36675,48.86306],[2.36425,48.86725],[2.36383,48.8675],[2.36552,48.8682],[2.36761,48.86883],[2.36964,48.86957],[2.37309,48.87063],[2.37699,48.87206],[2.37798,48.87109],[2.38308,48.86718],[2.38346,48.86645],[2.3873,48.86309],[2.38752,48.86276],[2.38956,48.85855],[2.3898,48.85843],[2.39227,48.85769],[2.39444,48.85657],[2.39507,48.85564],[2.39624,48.85415]]]}},{"type":"Feature","properties":{"ar":12,"nom":"Reuilly","label":"12ème Ardt","coverage":0.632},"geometry":{"type":"Polygon","coordinates":[[[2.41388,48.83357],[2.41541,48.83366],[2.41699,48.83395],[2.41887,48.83452],[2.42225,48.83569],[2.42161,48.83686],[2.42129,48.83826],[2.42086,48.83962],[2.42042,48.8405],[2.41986,48.84107],[2.41957,48.84153],[2.41942,48.84248],[2.41988,48.84304],[2.41988,48.84343],[2.42211,48.8445],[2.42245,48.8443],[2.42276,48.844],[2.4237,48.84269],[2.42456,48.84195],[2.4248,48.8419],[2.42474,48.84177],[2.43364,48.84099],[2.43368,48.84119],[2.43719,48.84089],[2.43794,48.84457],[2.44051,48.84435],[2.44062,48.84489],[2.44081,48.84487],[2.44087,48.84521],[2.44069,48.84521],[2.44077,48.84592],[2.44653,48.84575],[2.44641,48.84493],[2.44938,48.84464],[2.45807,48.84345],[2.46081,48.84293],[2.46221,48.84255],[2.46323,48.84218],[2.46408,48.84179],[2.46483,48.84134],[2.46566,48.84074],[2.46644,48.84005],[2.46724,48.83908],[2.46845,48.83788],[2.46937,48.83706],[2.46976,48.83643],[2.46971,48.83556],[2.46953,48.83495],[2.46903,48.83409],[2.46839,48.83355],[2.46673,48.83272],[2.46625,48.83239],[2.46555,48.83169],[2.46516,48.831],[2.46464,48.82936],[2.46452,48.82861],[2.46461,48.82763],[2.46509,48.82754],[2.46523,48.82767],[2.46618,48.82733],[2.46536,48.825],[2.46515,48.82499],[2.46525,48.8245],[2.46472,48.82328],[2.46291,48.8202],[2.46264,48.81934],[2.46252,48.81927],[2.4628,48.81903],[2.45977,48.81754],[2.4592,48.81733],[2.45925,48.81724],[2.45863,48.81701],[2.45715,48.81702],[2.45321,48.81725],[2.45083,48.81781],[2.44964,48.81796],[2.44762,48.81803],[2.44267,48.81796],[2.44164,48.81804],[2.4398,48.81837],[2.43735,48.81822],[2.43747,48.8191],[2.43691,48.81938],[2.43615,48.81958],[2.43516,48.81965],[2.4345,48.81937],[2.43432,48.81939],[2.43418,48.81928],[2.4343,48.82016],[2.43248,48.82142],[2.43289,48.82169],[2.43262,48.8219],[2.43219,48.82162],[2.43037,48.82288],[2.43069,48.82323],[2.42998,48.82349],[2.42818,48.82395],[2.42624,48.82421],[2.42442,48.82427],[2.42138,48.82414],[2.42017,48.82414],[2.41918,48.82427],[2.41755,48.82466],[2.41652,48.82481],[2.41505,48.82486],[2.41284,48.8248],[2.41178,48.8249],[2.41068,48.82508],[2.40975,48.82537],[2.40863,48.8259],[2.40754,48.82658],[2.40474,48.82863],[2.40398,48.82904],[2.40249,48.82965],[2.39572,48.82773],[2.39435,48.82751],[2.39026,48.82573],[2.38693,48.82806],[2.38442,48.83021],[2.37893,48.83449],[2.37708,48.83601],[2.37309,48.83967],[2.36443,48.84614],[2.3665,48.84737],[2.36914,48.85316],[2.37035,48.85325],[2.3713,48.85268],[2.37197,48.8524],[2.37379,48.85187],[2.37882,48.85063],[2.38012,48.85045],[2.38378,48.85021],[2.39592,48.84838],[2.41599,48.84661],[2.41569,48.84511],[2.41351,48.83788],[2.41227,48.83455],[2.41122,48.83386],[2.41261,48.83365],[2.41388,48.83357]]]}},{"type":"Feature","properties":{"ar":13,"nom":"Gobelins","label":"13ème Ardt","coverage":0.994},"geometry":{"type":"Polygon","coordinates":[[[2.37491,48.83801],[2.37708,48.83601],[2.38442,48.83021],[2.38693,48.82806],[2.39026,48.82573],[2.38882,48.82501],[2.38152,48.82241],[2.38076,48.8217],[2.36869,48.81773],[2.3634,48.81606],[2.35592,48.81597],[2.3524,48.81853],[2.34692,48.81586],[2.34443,48.81611],[2.3445,48.81558],[2.34397,48.81577],[2.3441,48.81763],[2.34463,48.81954],[2.34388,48.82036],[2.34268,48.82119],[2.34204,48.82209],[2.34173,48.82269],[2.34144,48.82367],[2.34169,48.82604],[2.34162,48.82812],[2.34135,48.8294],[2.34114,48.83249],[2.34159,48.83481],[2.34207,48.83836],[2.347,48.83732],[2.35184,48.83679],[2.36182,48.83996],[2.36495,48.84426],[2.36603,48.84493],[2.37309,48.83967],[2.37491,48.83801]]]}},{"type":"Feature","properties":{"ar":14,"nom":"Observatoire","label":"14ème Ardt","coverage":0.993},"geometry":{"type":"Polygon","coordinates":[[[2.33381,48.84061],[2.33673,48.83965],[2.33969,48.83887],[2.34207,48.83836],[2.34159,48.83481],[2.34114,48.83249],[2.34135,48.8294],[2.34162,48.82812],[2.34169,48.82604],[2.34144,48.82367],[2.34173,48.82269],[2.34204,48.82209],[2.34268,48.82119],[2.34388,48.82036],[2.34463,48.81954],[2.3441,48.81763],[2.34397,48.81577],[2.34308,48.81609],[2.34171,48.81634],[2.33373,48.81676],[2.33175,48.81704],[2.33237,48.81822],[2.3012,48.82515],[2.3085,48.83108],[2.31993,48.84052],[2.32137,48.83978],[2.32184,48.84017],[2.32149,48.84101],[2.32471,48.84362],[2.33381,48.84061]]]}},{"type":"Feature","properties":{"ar":15,"nom":"Vaugirard","label":"15ème Ardt","coverage":0.957},"geometry":{"type":"Polygon","coordinates":[[[2.29932,48.85217],[2.30088,48.85118],[2.30096,48.85123],[2.30734,48.84714],[2.30804,48.84739],[2.31053,48.84799],[2.31373,48.84593],[2.31657,48.84682],[2.31915,48.84551],[2.32471,48.84362],[2.32149,48.84101],[2.32184,48.84017],[2.32137,48.83978],[2.31993,48.84052],[2.3085,48.83108],[2.3012,48.82515],[2.29222,48.82714],[2.28332,48.83088],[2.27903,48.83246],[2.27551,48.82959],[2.27274,48.82793],[2.26783,48.82784],[2.26763,48.82796],[2.26732,48.83149],[2.26761,48.83172],[2.2686,48.83228],[2.26965,48.83286],[2.27004,48.833],[2.26785,48.83456],[2.2673,48.83465],[2.26296,48.8339],[2.26759,48.83852],[2.26978,48.84087],[2.27571,48.84696],[2.27916,48.84977],[2.28811,48.85612],[2.28894,48.85746],[2.28984,48.85824],[2.29932,48.85217]]]}},{"type":"Feature","properties":{"ar":16,"nom":"Passy","label":"16ème Ardt","coverage":0.905},"geometry":{"type":"Polygon","coordinates":[[[2.27427,48.87837],[2.27749,48.87796],[2.2798,48.87865],[2.29504,48.87378],[2.29753,48.87093],[2.29891,48.86856],[2.2999,48.86533],[2.3002,48.86506],[2.30152,48.86452],[2.30159,48.86347],[2.30048,48.86342],[2.29923,48.86327],[2.29792,48.86298],[2.29637,48.86251],[2.2942,48.86152],[2.29178,48.85978],[2.28906,48.85759],[2.28811,48.85612],[2.27916,48.84977],[2.27571,48.84696],[2.26978,48.84087],[2.26759,48.83852],[2.26296,48.8339],[2.25515,48.83481],[2.25165,48.83891],[2.25122,48.8429],[2.25254,48.84558],[2.25066,48.84563],[2.24247,48.84773],[2.24022,48.84967],[2.23985,48.84991],[2.23941,48.85008],[2.22415,48.85344],[2.22408,48.85396],[2.22414,48.85505],[2.22433,48.85595],[2.22575,48.85971],[2.22729,48.86257],[2.22825,48.86516],[2.22865,48.86576],[2.22994,48.86725],[2.23212,48.86955],[2.23739,48.87102],[2.23963,48.87156],[2.2403,48.87181],[2.24118,48.87237],[2.24335,48.87412],[2.24562,48.87636],[2.25482,48.87408],[2.25541,48.87426],[2.25841,48.8801],[2.25888,48.88028],[2.27427,48.87837]]]}},{"type":"Feature","properties":{"ar":17,"nom":"Batignolles-Monceau","label":"17ème Ardt","coverage":1},"geometry":{"type":"Polygon","coordinates":[[[2.29517,48.87396],[2.29504,48.87378],[2.2798,48.87865],[2.27996,48.8787],[2.28091,48.88288],[2.28566,48.88657],[2.29154,48.88945],[2.29506,48.88987],[2.29857,48.89171],[2.3075,48.89594],[2.31227,48.89774],[2.31852,48.89963],[2.32039,48.90076],[2.32639,48.90097],[2.33015,48.90104],[2.32559,48.8875],[2.32743,48.88352],[2.31666,48.88133],[2.30861,48.88032],[2.29816,48.87808],[2.29517,48.87396]]]}},{"type":"Feature","properties":{"ar":18,"nom":"Buttes-Montmartre","label":"18ème Ardt","coverage":0.993},"geometry":{"type":"Polygon","coordinates":[[[2.3658,48.88554],[2.36469,48.88437],[2.35911,48.88442],[2.34951,48.88373],[2.34695,48.88342],[2.33982,48.88202],[2.3373,48.8824],[2.33244,48.88385],[2.32944,48.88455],[2.32814,48.88371],[2.32743,48.88352],[2.32559,48.8875],[2.33015,48.90104],[2.37029,48.90186],[2.37017,48.90152],[2.37039,48.89663],[2.37179,48.89541],[2.37052,48.89464],[2.37002,48.89403],[2.36831,48.89008],[2.36758,48.88865],[2.36679,48.88664],[2.3658,48.88554]]]}},{"type":"Feature","properties":{"ar":19,"nom":"Buttes-Chaumont","label":"19ème Ardt","coverage":0.93},"geometry":{"type":"Polygon","coordinates":[[[2.38943,48.90122],[2.39071,48.90098],[2.39552,48.89826],[2.39777,48.89461],[2.39862,48.89135],[2.39919,48.88823],[2.39921,48.88542],[2.40011,48.88381],[2.40149,48.88262],[2.40463,48.88123],[2.40934,48.88026],[2.41084,48.87842],[2.40808,48.87763],[2.40694,48.87722],[2.40597,48.87701],[2.40257,48.87601],[2.39893,48.87548],[2.3973,48.87543],[2.39533,48.87525],[2.39177,48.87546],[2.3904,48.87545],[2.38978,48.87534],[2.38855,48.87479],[2.38677,48.8746],[2.38492,48.87375],[2.38223,48.87334],[2.38059,48.87301],[2.37699,48.87206],[2.37028,48.87799],[2.37018,48.88274],[2.36922,48.88321],[2.369,48.88345],[2.36878,48.8839],[2.36839,48.88409],[2.36469,48.88437],[2.36679,48.88664],[2.36758,48.88865],[2.36831,48.89008],[2.37002,48.89403],[2.37052,48.89464],[2.37179,48.89541],[2.37039,48.89663],[2.37019,48.90167],[2.37029,48.90186],[2.38444,48.90216],[2.38943,48.90122]]]}},{"type":"Feature","properties":{"ar":20,"nom":"Ménilmontant","label":"20ème Ardt","coverage":0.986},"geometry":{"type":"Polygon","coordinates":[[[2.41277,48.87547],[2.41362,48.87258],[2.41401,48.8689],[2.41386,48.86408],[2.41409,48.86231],[2.41643,48.84879],[2.41599,48.84661],[2.39912,48.8481],[2.39926,48.84884],[2.39843,48.85135],[2.39507,48.85564],[2.39444,48.85657],[2.39227,48.85769],[2.38958,48.85853],[2.3873,48.86309],[2.38346,48.86645],[2.38308,48.86718],[2.37798,48.87109],[2.37699,48.87206],[2.38059,48.87301],[2.38223,48.87334],[2.38492,48.87375],[2.38677,48.8746],[2.38855,48.87479],[2.38978,48.87534],[2.3904,48.87545],[2.39177,48.87546],[2.39533,48.87525],[2.3973,48.87543],[2.39893,48.87548],[2.40257,48.87601],[2.40597,48.87701],[2.40694,48.87722],[2.40808,48.87763],[2.41084,48.87842],[2.4125,48.87638],[2.41277,48.87547]]]}}]}